[{"OBJECT_NAME":"GHGSAT-C3","OBJECT_ID":"2022-057F","EPOCH":"2026-03-09T22:30:13.234752","MEAN_MOTION":15.32943835,"ECCENTRICITY":0.00073198,"INCLINATION":97.6431,"RA_OF_ASC_NODE":211.0668,"ARG_OF_PERICENTER":112.4588,"MEAN_ANOMALY":247.7429,"EPHEMERIS_TYPE":0,"CLASSIFICATION_TYPE":"U","NORAD_CAT_ID":52737,"ELEMENT_SET_NO":999,"REV_AT_EPOCH":21032,"BSTAR":0.00031249517,"MEAN_MOTION_DOT":9.871e-5,"MEAN_MOTION_DDOT":0},{"OBJECT_NAME":"STARLINK-34830","OBJECT_ID":"2025-192B","EPOCH":"2026-03-09T17:53:24.967968","MEAN_MOTION":15.31064913,"ECCENTRICITY":0.00031616,"INCLINATION":53.1594,"RA_OF_ASC_NODE":232.0306,"ARG_OF_PERICENTER":350.889,"MEAN_ANOMALY":9.2053,"EPHEMERIS_TYPE":0,"CLASSIFICATION_TYPE":"U","NORAD_CAT_ID":65405,"ELEMENT_SET_NO":999,"REV_AT_EPOCH":2940,"BSTAR":0.0048941642,"MEAN_MOTION_DOT":0.00151602,"MEAN_MOTION_DDOT":0}]
